[{"OBJECT_NAME":"STARLINK-35195","OBJECT_ID":"2025-207Q","EPOCH":"2026-03-09T17:40:36.529824","MEAN_MOTION":15.05660827,"ECCENTRICITY":3.381e-5,"INCLINATION":97.6041,"RA_OF_ASC_NODE":138.7907,"ARG_OF_PERICENTER":111.9911,"MEAN_ANOMALY":248.1352,"EPHEMERIS_TYPE":0,"CLASSIFICATION_TYPE":"U","NORAD_CAT_ID":65606,"ELEMENT_SET_NO":999,"REV_AT_EPOCH":2827,"BSTAR":0.00040656138,"MEAN_MOTION_DOT":5.812e-5,"MEAN_MOTION_DDOT":0},{"OBJECT_NAME":"UNKNOWN","OBJECT_ID":"","EPOCH":"2026-03-09T06:40:17.770944","MEAN_MOTION":13.93999236,"ECCENTRICITY":0.0496409,"INCLINATION":63.0116,"RA_OF_ASC_NODE":359.5695,"ARG_OF_PERICENTER":301.9459,"MEAN_ANOMALY":53.4224,"EPHEMERIS_TYPE":0,"CLASSIFICATION_TYPE":"U","NORAD_CAT_ID":82205,"ELEMENT_SET_NO":999,"REV_AT_EPOCH":62006,"BSTAR":0.0010476,"MEAN_MOTION_DOT":3.786e-5,"MEAN_MOTION_DDOT":0}]
